{
    "links": {
        "self": "http://www.neowsapp.com/rest/v1/neo/54087781?api_key=iIulBulltgU6a56xZRHN4H3l9WmuAYTsLGpBGhQ2"
    },
    "id": "54087781",
    "neo_reference_id": "54087781",
    "name": "(2020 VE4)",
    "designation": "2020 VE4",
    "nasa_jpl_url": "http://ssd.jpl.nasa.gov/sbdb.cgi?sstr=54087781",
    "absolute_magnitude_h": 25.535,
    "estimated_diameter": {
        "kilometers": {
            "estimated_diameter_min": 0.020775667,
            "estimated_diameter_max": 0.0464558038
        },
        "meters": {
            "estimated_diameter_min": 20.775667046,
            "estimated_diameter_max": 46.4558037927
        },
        "miles": {
            "estimated_diameter_min": 0.012909397,
            "estimated_diameter_max": 0.0288662893
        },
        "feet": {
            "estimated_diameter_min": 68.1616394711,
            "estimated_diameter_max": 152.4140593151
        }
    },
    "is_potentially_hazardous_asteroid": false,
    "close_approach_data": [
        {
            "close_approach_date": "2016-12-02",
            "close_approach_date_full": "2016-Dec-02 07:39",
            "epoch_date_close_approach": 1480664340000,
            "relative_velocity": {
                "kilometers_per_second": "29.9275009505",
                "kilometers_per_hour": "107739.0034218313",
                "miles_per_hour": "66944.8268761929"
            },
            "miss_distance": {
                "astronomical": "0.4470203616",
                "lunar": "173.8909206624",
                "kilometers": "66873293.941989792",
                "miles": "41553138.0109394496"
            },
            "orbiting_body": "Earth"
        },
        {
            "close_approach_date": "2018-11-21",
            "close_approach_date_full": "2018-Nov-21 16:58",
            "epoch_date_close_approach": 1542819480000,
            "relative_velocity": {
                "kilometers_per_second": "22.875272493",
                "kilometers_per_hour": "82350.9809748457",
                "miles_per_hour": "51169.6970396201"
            },
            "miss_distance": {
                "astronomical": "0.2155897207",
                "lunar": "83.8644013523",
                "kilometers": "32251763.010614909",
                "miles": "20040316.2529833842"
            },
            "orbiting_body": "Earth"
        },
        {
            "close_approach_date": "2020-11-08",
            "close_approach_date_full": "2020-Nov-08 13:21",
            "epoch_date_close_approach": 1604841660000,
            "relative_velocity": {
                "kilometers_per_second": "15.9190974436",
                "kilometers_per_hour": "57308.750796829",
                "miles_per_hour": "35609.4290715074"
            },
            "miss_distance": {
                "astronomical": "0.0185664315",
                "lunar": "7.2223418535",
                "kilometers": "2777498.605900905",
                "miles": "1725857.604626289"
            },
            "orbiting_body": "Earth"
        },
        {
            "close_approach_date": "2073-08-02",
            "close_approach_date_full": "2073-Aug-02 06:24",
            "epoch_date_close_approach": 3268880640000,
            "relative_velocity": {
                "kilometers_per_second": "14.8029050231",
                "kilometers_per_hour": "53290.4580831182",
                "miles_per_hour": "33112.6182461464"
            },
            "miss_distance": {
                "astronomical": "0.3180520079",
                "lunar": "123.7222310731",
                "kilometers": "47579902.931063173",
                "miles": "29564780.7442628674"
            },
            "orbiting_body": "Earth"
        }
    ],
    "orbital_data": {
        "orbit_id": "7",
        "orbit_determination_date": "2020-11-23 05:21:49",
        "first_observation_date": "2020-11-12",
        "last_observation_date": "2020-11-23",
        "data_arc_in_days": 11,
        "observations_used": 54,
        "orbit_uncertainty": "8",
        "minimum_orbit_intersection": ".00741352",
        "jupiter_tisserand_invariant": "4.231",
        "epoch_osculation": "2459169.5",
        "eccentricity": ".5587783444505403",
        "semi_major_axis": "1.56560155547759",
        "inclination": "3.967210171301859",
        "ascending_node_longitude": "233.5218524385788",
        "orbital_period": "715.5175542885471",
        "perihelion_distance": ".6907773102386313",
        "perihelion_argument": "92.74718622992319",
        "aphelion_distance": "2.440425800716548",
        "perihelion_time": "2459112.837521521563",
        "mean_anomaly": "28.50872369234873",
        "mean_motion": ".5031323100911967",
        "equinox": "J2000",
        "orbit_class": {
            "orbit_class_type": "APO",
            "orbit_class_description": "Near-Earth asteroid orbits which cross the Earth’s orbit similar to that of 1862 Apollo",
            "orbit_class_range": "a (semi-major axis) > 1.0 AU; q (perihelion) < 1.017 AU"
        }
    },
    "is_sentry_object": false
}